{
  "norad_id": 66448,
  "name": "STARLINK-35355",
  "history": [
    {
      "epoch": "2026-03-28T16:39:15.323904Z",
      "apogee_km": 484.29844220778887,
      "perigee_km": 481.57596796321104,
      "latitude_deg": 1.5967138582524855e-05,
      "longitude_deg": 91.4421655652557,
      "height_km": 482.3898117723752,
      "semi_major_axis_km": 6861.0742050855,
      "eccentricity": 0.0001984,
      "inclination_deg": 43.0006,
      "raan_deg": 167.3667,
      "arg_perigee_deg": 283.7965,
      "mean_anomaly_deg": 76.2666,
      "mean_motion_rev_day": 15.27617368
    }
  ]
}